[{"OBJECT_NAME":"SDGSAT 1","OBJECT_ID":"2021-100A","EPOCH":"2026-03-09T22:25:47.765568","MEAN_MOTION":15.19363772,"ECCENTRICITY":0.00064261,"INCLINATION":97.2774,"RA_OF_ASC_NODE":119.531,"ARG_OF_PERICENTER":284.1748,"MEAN_ANOMALY":75.8773,"EPHEMERIS_TYPE":0,"CLASSIFICATION_TYPE":"U","NORAD_CAT_ID":49387,"ELEMENT_SET_NO":999,"REV_AT_EPOCH":24084,"BSTAR":0.00015779611,"MEAN_MOTION_DOT":3.272e-5,"MEAN_MOTION_DDOT":0},{"OBJECT_NAME":"LEGION 1","OBJECT_ID":"2024-081A","EPOCH":"2026-03-09T22:23:33.170784","MEAN_MOTION":15.17519519,"ECCENTRICITY":0.00050491,"INCLINATION":97.5067,"RA_OF_ASC_NODE":147.8287,"ARG_OF_PERICENTER":20.2836,"MEAN_ANOMALY":339.8597,"EPHEMERIS_TYPE":0,"CLASSIFICATION_TYPE":"U","NORAD_CAT_ID":59625,"ELEMENT_SET_NO":999,"REV_AT_EPOCH":10249,"BSTAR":0.00027762917,"MEAN_MOTION_DOT":5.502e-5,"MEAN_MOTION_DDOT":0}]
